     2.100          NAVIGATION                              RINEX VERSION / TYPE
fic2rin                                 07/12/2013 00:41:11 PGM / RUN BY / DATE
                                                            END OF HEADER
11 13  7 11  8  0  0.0 -.399740878493D-03 -.352429196937D-11  .000000000000D+00
     .620000000000D+02 -.182187500000D+02  .600417866957D-08 -.262381019645D+00
    -.944361090660D-06  .141839912394D-01  .112187117338D-04  .515369302940D+04
     .374400000000D+06 -.856816768646D-07 -.251743867848D+01  .201165676117D-06
     .889308188581D+00  .129031250000D+03  .118060001412D+01 -.890537094445D-08
     .342871424828D-09  .100000000000D+01  .174800000000D+04  .000000000000D+00
     .240000000000D+01  .000000000000D+00 -.116415321827D-07  .620000000000D+02
     .367206000000D+06  .400000000000D+01
12 13  7 11  8  0  0.0  .144157558680D-03  .216004991671D-11  .000000000000D+00
     .330000000000D+02  .946875000000D+01  .422517599554D-08 -.779649988146D+00
     .443309545517D-06  .450242520310D-02  .223889946938D-05  .515353421021D+04
     .374400000000D+06  .119209289551D-06  .200295633193D+01  .186264514923D-08
     .984351414622D+00  .349687500000D+03  .312867996139D+00 -.818248369043D-08
    -.678599694973D-11  .100000000000D+01  .174800000000D+04  .000000000000D+00
     .240000000000D+01  .000000000000D+00 -.121071934700D-07  .330000000000D+02
     .367206000000D+06  .400000000000D+01
13 13  7 11  8  0  0.0  .101092271507D-03 -.375166564481D-11  .000000000000D+00
     .490000000000D+02 -.690625000000D+01  .403231081907D-08  .186479957444D+01
    -.366941094398D-06  .514611101244D-02  .965036451817D-05  .515373152161D+04
     .374400000000D+06  .782310962677D-07 -.232024073877D-01 -.614672899246D-07
     .981402710128D+00  .198375000000D+03  .216652732067D+01 -.766103339851D-08
    -.615739933754D-09  .100000000000D+01  .174800000000D+04  .000000000000D+00
     .240000000000D+01  .000000000000D+00 -.111758708954D-07  .490000000000D+02
     .367206000000D+06  .400000000000D+01
14 13  7 11  8  0  0.0  .219486188143D-03 -.454747350886D-12  .000000000000D+00
     .340000000000D+02 -.117812500000D+02  .413231498465D-08  .209321141539D+01
    -.759959220886D-06  .711964105722D-02  .966712832451D-05  .515376992798D+04
     .374400000000D+06 -.521540641785D-07 -.527485732355D-01 -.132247805595D-06
     .974050032659D+00  .200281250000D+03 -.203642650781D+01 -.769210612138D-08
    -.516092925913D-09  .100000000000D+01  .174800000000D+04  .000000000000D+00
     .240000000000D+01  .000000000000D+00 -.884756445885D-08  .340000000000D+02
     .367206000000D+06  .400000000000D+01
15 13  7 11  8  0  0.0 -.127101317048D-03 -.170530256582D-11  .000000000000D+00
     .980000000000D+02 -.281250000000D+02  .517628704170D-08  .156559094389D+01
    -.120513141155D-05  .544785184320D-02  .848248600960D-05  .515378739166D+04
     .374400000000D+06  .409781932831D-07 -.154044107801D+00  .800937414169D-07
     .940605225240D+00  .205156250000D+03  .164726126419D+00 -.831963226036D-08
    -.579667002600D-09  .100000000000D+01  .174800000000D+04  .000000000000D+00
     .240000000000D+01  .000000000000D+00 -.102445483208D-07  .980000000000D+02
     .367206000000D+06  .400000000000D+01
16 13  7 11  8  0  0.0 -.250339973718D-03  .454747350886D-12  .000000000000D+00
     .600000000000D+01 -.175000000000D+01  .417017370447D-08 -.298922392346D+01
    -.115483999252D-06  .711603055242D-02  .205077230930D-05  .515366954994D+04
     .374400000000D+06 -.353902578354D-07  .202137223520D+01 -.391155481339D-07
     .985042399107D+00  .355093750000D+03  .127366810619D+00 -.810390898891D-08
     .150006248362D-10  .100000000000D+01  .174800000000D+04  .000000000000D+00
     .240000000000D+01  .000000000000D+00 -.102445483208D-07  .600000000000D+01
     .367206000000D+06  .400000000000D+01
18 13  7 11  8  0  0.0  .263053458184D-03  .193267624127D-11  .000000000000D+00
     .100000000000D+03  .141250000000D+02  .574416783908D-08 -.247495390191D+01
     .618398189545D-06  .145381276961D-01  .411272048950D-05  .515361085892D+04
     .374400000000D+06  .288709998131D-06 -.117238018465D+01 -.260770320892D-07
     .926669148701D+00  .279000000000D+03 -.209309500222D+01 -.852249785339D-08
     .238224208709D-09  .100000000000D+01  .174800000000D+04  .000000000000D+00
     .340000000000D+01  .000000000000D+00 -.111758708954D-07  .100000000000D+03
     .367206000000D+06  .400000000000D+01
19 13  7 11  8  0  0.0 -.387900043279D-03 -.295585778076D-11  .000000000000D+00
     .550000000000D+02 -.993437500000D+02  .427017787005D-08  .155288833990D+01
    -.510551035404D-05  .945621286519D-02  .894814729691D-05  .515372629738D+04
     .374400000000D+06 -.465661287308D-07  .310937772725D+01  .137835741043D-06
     .963451344781D+00  .209375000000D+03  .336403663580D+00 -.801819113270D-08
    -.293583657509D-09  .100000000000D+01  .174800000000D+04  .000000000000D+00
     .240000000000D+01  .000000000000D+00 -.149011611938D-07  .550000000000D+02
     .367206000000D+06  .400000000000D+01
20 13  7 11  8  0  0.0  .108676962554D-03  .227373675443D-11  .000000000000D+00
     .610000000000D+02  .204687500000D+02  .582488548700D-08 -.197320376297D+01
     .113062560558D-05  .537498667836D-02  .445917248726D-05  .515370436859D+04
     .374400000000D+06  .113621354103D-06 -.122579856078D+01  .111758708954D-07
     .927435463227D+00  .275281250000D+03  .129065159616D+01 -.861607317975D-08
     .221437795202D-09  .100000000000D+01  .174800000000D+04  .000000000000D+00
     .240000000000D+01  .000000000000D+00 -.791624188423D-08  .610000000000D+02
     .367206000000D+06  .400000000000D+01
21 13  7 11  8  0  0.0 -.307749025524D-03 -.204636307899D-11  .000000000000D+00
     .460000000000D+02  .191250000000D+02  .499592238593D-08 -.143833839888D+01
     .119209289551D-05  .204435971100D-01  .953860580921D-05  .515366565132D+04
     .374400000000D+06  .465661287308D-06 -.222010301901D+01  .182539224625D-06
     .931627424262D+00  .172937500000D+03 -.212034121654D+01 -.809962309610D-08
     .531807866218D-09  .100000000000D+01  .174800000000D+04  .000000000000D+00
     .240000000000D+01  .000000000000D+00 -.111758708954D-07  .460000000000D+02
     .367206000000D+06  .400000000000D+01
22 13  7 11  8  0  0.0  .175164546818D-03  .147792889038D-11  .000000000000D+00
     .630000000000D+02  .152812500000D+02  .584024326957D-08 -.305842966824D+01
     .676140189171D-06  .678058830090D-02  .428222119808D-05  .515364155388D+04
     .374400000000D+06  .111758708954D-06 -.116986003762D+01 -.126659870148D-06
     .924419906302D+00  .278625000000D+03 -.203550461926D+01 -.863285959325D-08
     .996470078407D-10  .100000000000D+01  .174800000000D+04  .000000000000D+00
     .240000000000D+01  .000000000000D+00 -.172294676304D-07  .630000000000D+02
     .367206000000D+06  .400000000000D+01
23 13  7 11  8  0  0.0  .680340453982D-04 -.352429196937D-11  .000000000000D+00
     .450000000000D+02 -.120937500000D+02  .476698427832D-08  .108339654669D+01
    -.398606061935D-06  .877152604517D-02  .908225774765D-05  .515368842697D+04
     .374400000000D+06  .577419996262D-07 -.112234024666D+00  .856816768646D-07
     .955587295521D+00  .200000000000D+03 -.286383864416D+01 -.814712507475D-08
    -.660741808263D-09  .100000000000D+01  .174800000000D+04  .000000000000D+00
     .240000000000D+01  .000000000000D+00 -.200234353542D-07  .450000000000D+02
     .367206000000D+06  .400000000000D+01
24 13  7 11  8  0  0.0 -.976305454969D-05 -.682121026330D-12  .000000000000D+00
     .109000000000D+03  .795312500000D+02  .444804242168D-08  .209902401609D+00
     .411458313465D-05  .944177387282D-03  .901520252228D-05  .515367574310D+04
     .374400000000D+06 -.372529029846D-08  .913944937407D+00 -.745058059692D-08
     .958849772536D+00  .200843750000D+03  .395565413664D+00 -.802819154926D-08
     .139291516336D-10  .100000000000D+01  .174800000000D+04  .000000000000D+00
     .340000000000D+01  .000000000000D+00  .279396772385D-08  .109000000000D+03
     .367206000000D+06  .400000000000D+01
25 13  7 11  8  0  0.0  .120659824461D-03  .500222085975D-11  .000000000000D+00
     .127000000000D+03  .918750000000D+01  .435875298813D-08 -.176789447062D+01
     .556930899620D-06  .273953448050D-02  .220537185669D-05  .515375524521D+04
     .374400000000D+06  .260770320892D-07  .196417603698D+01 -.484287738800D-07
     .973156929949D+00  .345281250000D+03  .726967930869D+00 -.821569935971D-08
     .210723063176D-10  .100000000000D+01  .174800000000D+04  .000000000000D+00
     .240000000000D+01  .000000000000D+00  .558793544769D-08  .127000000000D+03
     .367206000000D+06  .400000000000D+01
26 13  7 11  8  0  0.0  .917110592127D-04  .165982783074D-10  .000000000000D+00
     .970000000000D+02 -.208437500000D+02  .426196324216D-08  .106769665031D+01
    -.107288360596D-05  .210793702863D-01  .100880861282D-04  .515366791916D+04
     .374400000000D+06 -.379979610443D-06 -.307524500601D-01 -.260770320892D-07
     .978844571114D+00  .201875000000D+03  .124639979595D+01 -.810498046211D-08
    -.610739725475D-09  .100000000000D+01  .174800000000D+04  .000000000000D+00
     .240000000000D+01  .000000000000D+00 -.605359673500D-08  .970000000000D+02
     .367206000000D+06  .400000000000D+01
27 13  7 11  8  0  0.0 -.942638143897D-05 -.443378667114D-11  .000000000000D+00
     .100000000000D+03 -.998125000000D+02  .436946772015D-08  .160984204189D+01
    -.521726906300D-05  .273053767160D-03  .786781311035D-05  .515366654778D+04
     .374400000000D+06  .931322574615D-08  .301412661324D+01  .223517417908D-07
     .960780489392D+00  .225687500000D+03  .804841823681D+00 -.806355016495D-08
    -.196436753808D-09  .100000000000D+01  .174800000000D+04  .000000000000D+00
     .240000000000D+01  .000000000000D+00  .372529029846D-08  .100000000000D+03
     .367206000000D+06  .400000000000D+01
